[
    {
        "Altitude(m)": 556769.5347716721,
        "Argument of Periapsis(deg)": 0.019868973332140504,
        "Eccentricity": 0.0,
        "Inclination(deg)": 53.0,
        "Latitude(deg)": 39.198260944531825,
        "Longitude(deg)": 25.294495158520384,
        "Mean Anomaly(deg)": 52.092978602732764,
        "RAAN(deg)": 89.97043010558404,
        "Satellite Name": "Starlink Shell 1 397",
        "Satellite Number": 397,
        "Semi-Major Axis(m)": 6931778.249405717,
        "Time(s)": 570
    },
    {
        "Altitude(m)": 556852.8316593522,
        "Argument of Periapsis(deg)": 0.02021755181165174,
        "Eccentricity": 0.0,
        "Inclination(deg)": 53.0,
        "Latitude(deg)": 39.59392936816091,
        "Longitude(deg)": 25.882237124017383,
        "Mean Anomaly(deg)": 52.7198098062895,
        "RAAN(deg)": 89.96991133550658,
        "Satellite Name": "Starlink Shell 1 397",
        "Satellite Number": 397,
        "Semi-Major Axis(m)": 6931778.249405717,
        "Time(s)": 580
    },
    {
        "Altitude(m)": 556935.9512411772,
        "Argument of Periapsis(deg)": 0.020566130291162974,
        "Eccentricity": 0.0,
        "Inclination(deg)": 53.0,
        "Latitude(deg)": 39.98612696254359,
        "Longitude(deg)": 26.477138063098216,
        "Mean Anomaly(deg)": 53.3466410098462,
        "RAAN(deg)": 89.9693925654291,
        "Satellite Name": "Starlink Shell 1 397",
        "Satellite Number": 397,
        "Semi-Major Axis(m)": 6931778.249405717,
        "Time(s)": 590
    },
    {
        "Altitude(m)": 557018.8395510238,
        "Argument of Periapsis(deg)": 0.020914708770674213,
        "Eccentricity": 0.0,
        "Inclination(deg)": 53.0,
        "Latitude(deg)": 40.3747664193644,
        "Longitude(deg)": 27.079315825106008,
        "Mean Anomaly(deg)": 53.973472213402914,
        "RAAN(deg)": 89.96887379535163,
        "Satellite Name": "Starlink Shell 1 397",
        "Satellite Number": 397,
        "Semi-Major Axis(m)": 6931778.249405717,
        "Time(s)": 600
    },
    {
        "Altitude(m)": 557101.4429508097,
        "Argument of Periapsis(deg)": 0.021263287250185448,
        "Eccentricity": 0.0,
        "Inclination(deg)": 53.0,
        "Latitude(deg)": 40.759758592330414,
        "Longitude(deg)": 27.6888871410656,
        "Mean Anomaly(deg)": 54.600303416959626,
        "RAAN(deg)": 89.96835502527416,
        "Satellite Name": "Starlink Shell 1 397",
        "Satellite Number": 397,
        "Semi-Major Axis(m)": 6931778.249405717,
        "Time(s)": 610
    },
    {
        "Altitude(m)": 557183.7081577017,
        "Argument of Periapsis(deg)": 0.021611865729696686,
        "Eccentricity": 0.0,
        "Inclination(deg)": 53.0,
        "Latitude(deg)": 41.141012486043664,
        "Longitude(deg)": 28.305967880669876,
        "Mean Anomaly(deg)": 55.22713462051634,
        "RAAN(deg)": 89.96783625519669,
        "Satellite Name": "Starlink Shell 1 397",
        "Satellite Number": 397,
        "Semi-Major Axis(m)": 6931778.249405717,
        "Time(s)": 620
    },
    {
        "Altitude(m)": 557265.5822710841,
        "Argument of Periapsis(deg)": 0.02196044420920792,
        "Eccentricity": 0.0,
        "Inclination(deg)": 53.0,
        "Latitude(deg)": 41.51843524816317,
        "Longitude(deg)": 28.93067161160372,
        "Mean Anomaly(deg)": 55.85396582407304,
        "RAAN(deg)": 89.96731748511921,
        "Satellite Name": "Starlink Shell 1 397",
        "Satellite Number": 397,
        "Semi-Major Axis(m)": 6931778.249405717,
        "Time(s)": 630
    },
    {
        "Altitude(m)": 557347.012799321,
        "Argument of Periapsis(deg)": 0.02230902268871916,
        "Eccentricity": 0.0,
        "Inclination(deg)": 53.0,
        "Latitude(deg)": 41.891932165184016,
        "Longitude(deg)": 29.563110663145785,
        "Mean Anomaly(deg)": 56.48079702762976,
        "RAAN(deg)": 89.96679871504175,
        "Satellite Name": "Starlink Shell 1 397",
        "Satellite Number": 397,
        "Semi-Major Axis(m)": 6931778.249405717,
        "Time(s)": 640
    },
    {
        "Altitude(m)": 557427.9476862937,
        "Argument of Periapsis(deg)": 0.022657601168230398,
        "Eccentricity": 0.0,
        "Inclination(deg)": 53.0,
        "Latitude(deg)": 42.261406662159274,
        "Longitude(deg)": 30.203394650694012,
        "Mean Anomaly(deg)": 57.107628231186474,
        "RAAN(deg)": 89.96627994496427,
        "Satellite Name": "Starlink Shell 1 397",
        "Satellite Number": 397,
        "Semi-Major Axis(m)": 6931778.249405717,
        "Time(s)": 650
    },
    {
        "Altitude(m)": 557508.3353376249,
        "Argument of Periapsis(deg)": 0.023006179647741636,
        "Eccentricity": 0.0,
        "Inclination(deg)": 53.0,
        "Latitude(deg)": 42.626760306723234,
        "Longitude(deg)": 30.851630663264405,
        "Mean Anomaly(deg)": 57.73445943474321,
        "RAAN(deg)": 89.9657611748868,
        "Satellite Name": "Starlink Shell 1 397",
        "Satellite Number": 397,
        "Semi-Major Axis(m)": 6931778.249405717,
        "Time(s)": 660
    },
    {
        "Altitude(m)": 557588.1246467122,
        "Argument of Periapsis(deg)": 0.023354758127252868,
        "Eccentricity": 0.0,
        "Inclination(deg)": 53.0,
        "Latitude(deg)": 42.987892817777876,
        "Longitude(deg)": 31.50792343267928,
        "Mean Anomaly(deg)": 58.36129063829993,
        "RAAN(deg)": 89.96524240480933,
        "Satellite Name": "Starlink Shell 1 397",
        "Satellite Number": 397,
        "Semi-Major Axis(m)": 6931778.249405717,
        "Time(s)": 670
    },
    {
        "Altitude(m)": 557667.2650204166,
        "Argument of Periapsis(deg)": 0.023703336606764106,
        "Eccentricity": 0.0,
        "Inclination(deg)": 53.0,
        "Latitude(deg)": 43.34470207921941,
        "Longitude(deg)": 32.17237397134423,
        "Mean Anomaly(deg)": 58.98812184185664,
        "RAAN(deg)": 89.96472363473185,
        "Satellite Name": "Starlink Shell 1 397",
        "Satellite Number": 397,
        "Semi-Major Axis(m)": 6931778.249405717,
        "Time(s)": 680
    },
    {
        "Altitude(m)": 557745.7064045144,
        "Argument of Periapsis(deg)": 0.024051915086275345,
        "Eccentricity": 0.0,
        "Inclination(deg)": 53.0,
        "Latitude(deg)": 43.69708415910171,
        "Longitude(deg)": 32.845079704227324,
        "Mean Anomaly(deg)": 59.614953045413344,
        "RAAN(deg)": 89.96420486465438,
        "Satellite Name": "Starlink Shell 1 397",
        "Satellite Number": 397,
        "Semi-Major Axis(m)": 6931778.249405717,
        "Time(s)": 690
    },
    {
        "Altitude(m)": 557823.3993088149,
        "Argument of Periapsis(deg)": 0.024400493565786583,
        "Eccentricity": 0.0,
        "Inclination(deg)": 53.0,
        "Latitude(deg)": 44.0449333346376,
        "Longitude(deg)": 33.52613458214209,
        "Mean Anomaly(deg)": 60.24178424897004,
        "RAAN(deg)": 89.96368609457691,
        "Satellite Name": "Starlink Shell 1 397",
        "Satellite Number": 397,
        "Semi-Major Axis(m)": 6931778.249405717,
        "Time(s)": 700
    },
    {
        "Altitude(m)": 557900.2948319839,
        "Argument of Periapsis(deg)": 0.024749072045297815,
        "Eccentricity": 0.0,
        "Inclination(deg)": 53.0,
        "Latitude(deg)": 44.388142123447956,
        "Longitude(deg)": 34.21562766355611,
        "Mean Anomaly(deg)": 60.86861545252678,
        "RAAN(deg)": 89.96316732449944,
        "Satellite Name": "Starlink Shell 1 397",
        "Satellite Number": 397,
        "Semi-Major Axis(m)": 6931778.249405717,
        "Time(s)": 710
    },
    {
        "Altitude(m)": 557976.3446860275,
        "Argument of Periapsis(deg)": 0.025097650524809053,
        "Eccentricity": 0.0,
        "Inclination(deg)": 53.0,
        "Latitude(deg)": 44.726601321484424,
        "Longitude(deg)": 34.91364319091147,
        "Mean Anomaly(deg)": 61.49544665608349,
        "RAAN(deg)": 89.96264855442196,
        "Satellite Name": "Starlink Shell 1 397",
        "Satellite Number": 397,
        "Semi-Major Axis(m)": 6931778.249405717,
        "Time(s)": 720
    },
    {
        "Altitude(m)": 558051.5012204597,
        "Argument of Periapsis(deg)": 0.02544622900432029,
        "Eccentricity": 0.0,
        "Inclination(deg)": 53.0,
        "Latitude(deg)": 45.06020004804854,
        "Longitude(deg)": 35.620260648969506,
        "Mean Anomaly(deg)": 62.12227785964021,
        "RAAN(deg)": 89.9621297843445,
        "Satellite Name": "Starlink Shell 1 397",
        "Satellite Number": 397,
        "Semi-Major Axis(m)": 6931778.249405717,
        "Time(s)": 730
    },
    {
        "Altitude(m)": 558125.7174461125,
        "Argument of Periapsis(deg)": 0.02579480748383153,
        "Eccentricity": 0.0,
        "Inclination(deg)": 53.0,
        "Latitude(deg)": 45.38882579833306,
        "Longitude(deg)": 36.33555329286539,
        "Mean Anomaly(deg)": 62.74910906319693,
        "RAAN(deg)": 89.96161101426702,
        "Satellite Name": "Starlink Shell 1 397",
        "Satellite Number": 397,
        "Semi-Major Axis(m)": 6931778.249405717,
        "Time(s)": 740
    },
    {
        "Altitude(m)": 558198.947058593,
        "Argument of Periapsis(deg)": 0.026143385963342765,
        "Eccentricity": 0.0,
        "Inclination(deg)": 53.0,
        "Latitude(deg)": 45.71236450391719,
        "Longitude(deg)": 37.059588172365345,
        "Mean Anomaly(deg)": 63.375940266753624,
        "RAAN(deg)": 89.96109224418953,
        "Satellite Name": "Starlink Shell 1 397",
        "Satellite Number": 397,
        "Semi-Major Axis(m)": 6931778.249405717,
        "Time(s)": 750
    }
]